{
  "type": "FeatureCollection",
  "features": [
    {
      "type": "Feature",
      "properties": {
        "norad_id": 35052,
        "name": "IRIDIUM 33 DEB",
        "group": "iridium-33-debris",
        "lat": 44.22319918507594,
        "lon": 26.774617305840213,
        "alt_km": 754.6214582031798,
        "timestamp": "2025-12-06T09:34:17.299612+00:00",
        "meta_object_name": "IRIDIUM 33 DEB",
        "meta_object_id": "1997-051NY",
        "meta_epoch": "2025-12-04T20:38:14.764704",
        "meta_mean_motion": 14.38478571,
        "meta_eccentricity": 0.0013621,
        "meta_inclination": 86.3316,
        "meta_ra_of_asc_node": 23.8542,
        "meta_arg_of_pericenter": 106.9628,
        "meta_mean_anomaly": 253.3064,
        "meta_ephemeris_type": 0,
        "meta_classification_type": "U",
        "meta_norad_cat_id": 35052,
        "meta_element_set_no": 999,
        "meta_rev_at_epoch": 87162,
        "meta_bstar": 0.00036777,
        "meta_mean_motion_dot": 1.143e-05,
        "meta_mean_motion_ddot": 0,
        "tle_line1": "1 35052U 97051NY  25338.85989311  .00001143  00000+0  36777-3 0  9993",
        "tle_line2": "2 35052  86.3316  23.8542 0013621 106.9628 253.3064 14.38478571871628"
      },
      "geometry": {
        "type": "Point",
        "coordinates": [
          26.774617305840213,
          44.22319918507594
        ]
      }
    },
    {
      "type": "Feature",
      "properties": {
        "norad_id": 35080,
        "name": "IRIDIUM 33 DEB",
        "group": "iridium-33-debris",
        "lat": -49.43485193893383,
        "lon": -120.15011675551787,
        "alt_km": 582.549149589423,
        "timestamp": "2025-12-06T09:34:17.299622+00:00",
        "meta_object_name": "IRIDIUM 33 DEB",
        "meta_object_id": "1997-051PF",
        "meta_epoch": "2025-12-05T22:50:10.565088",
        "meta_mean_motion": 14.84725398,
        "meta_eccentricity": 0.00625763,
        "meta_inclination": 86.2064,
        "meta_ra_of_asc_node": 55.6178,
        "meta_arg_of_pericenter": 202.8962,
        "meta_mean_anomaly": 156.947,
        "meta_ephemeris_type": 0,
        "meta_classification_type": "U",
        "meta_norad_cat_id": 35080,
        "meta_element_set_no": 999,
        "meta_rev_at_epoch": 69587,
        "meta_bstar": 0.011235471,
        "meta_mean_motion_dot": 0.000998,
        "meta_mean_motion_ddot": 0,
        "tle_line1": "1 35080U 97051PF  25339.95151117  .00099800  00000+0  11235-1 0  9998",
        "tle_line2": "2 35080  86.2064  55.6178 0062576 202.8962 156.9470 14.84725398695879"
      },
      "geometry": {
        "type": "Point",
        "coordinates": [
          -120.15011675551787,
          -49.43485193893383
        ]
      }
    },
    {
      "type": "Feature",
      "properties": {
        "norad_id": 35297,
        "name": "IRIDIUM 33 DEB",
        "group": "iridium-33-debris",
        "lat": 19.89814400580975,
        "lon": -115.84651988342522,
        "alt_km": 729.7429634638183,
        "timestamp": "2025-12-06T09:34:17.299632+00:00",
        "meta_object_name": "IRIDIUM 33 DEB",
        "meta_object_id": "1997-051PM",
        "meta_epoch": "2025-12-05T12:53:30.898752",
        "meta_mean_motion": 14.45104988,
        "meta_eccentricity": 0.00169559,
        "meta_inclination": 86.3863,
        "meta_ra_of_asc_node": 65.8318,
        "meta_arg_of_pericenter": 162.4082,
        "meta_mean_anomaly": 197.7711,
        "meta_ephemeris_type": 0,
        "meta_classification_type": "U",
        "meta_norad_cat_id": 35297,
        "meta_element_set_no": 999,
        "meta_rev_at_epoch": 70322,
        "meta_bstar": 0.001371701,
        "meta_mean_motion_dot": 4.822e-05,
        "meta_mean_motion_ddot": 0,
        "tle_line1": "1 35297U 97051PM  25339.53716318  .00004822  00000+0  13717-2 0  9990",
        "tle_line2": "2 35297  86.3863  65.8318 0016955 162.4082 197.7711 14.45104988703223"
      },
      "geometry": {
        "type": "Point",
        "coordinates": [
          -115.84651988342522,
          19.89814400580975
        ]
      }
    },
    {
      "type": "Feature",
      "properties": {
        "norad_id": 35299,
        "name": "IRIDIUM 33 DEB",
        "group": "iridium-33-debris",
        "lat": -11.462183591944347,
        "lon": -143.29886614195948,
        "alt_km": 744.9817021353047,
        "timestamp": "2025-12-06T09:34:17.299642+00:00",
        "meta_object_name": "IRIDIUM 33 DEB",
        "meta_object_id": "1997-051PP",
        "meta_epoch": "2025-12-04T22:15:32.154336",
        "meta_mean_motion": 14.40800476,
        "meta_eccentricity": 0.0058727,
        "meta_inclination": 86.2893,
        "meta_ra_of_asc_node": 36.5873,
        "meta_arg_of_pericenter": 127.2291,
        "meta_mean_anomaly": 356.5642,
        "meta_ephemeris_type": 0,
        "meta_classification_type": "U",
        "meta_norad_cat_id": 35299,
        "meta_element_set_no": 999,
        "meta_rev_at_epoch": 86218,
        "meta_bstar": 0.0017577,
        "meta_mean_motion_dot": 5.762e-05,
        "meta_mean_motion_ddot": 0,
        "tle_line1": "1 35299U 97051PP  25338.92745549  .00005762  00000+0  17577-2 0  9994",
        "tle_line2": "2 35299  86.2893  36.5873 0058727 127.2291 356.5642 14.40800476862181"
      },
      "geometry": {
        "type": "Point",
        "coordinates": [
          -143.29886614195948,
          -11.462183591944347
        ]
      }
    },
    {
      "type": "Feature",
      "properties": {
        "norad_id": 35480,
        "name": "IRIDIUM 33 DEB",
        "group": "iridium-33-debris",
        "lat": 85.68530417040648,
        "lon": 85.25869783515307,
        "alt_km": 709.9656788164057,
        "timestamp": "2025-12-06T09:34:17.299651+00:00",
        "meta_object_name": "IRIDIUM 33 DEB",
        "meta_object_id": "1997-051QA",
        "meta_epoch": "2025-12-01T21:29:27.496896",
        "meta_mean_motion": 14.49686619,
        "meta_eccentricity": 0.00155495,
        "meta_inclination": 86.3575,
        "meta_ra_of_asc_node": 29.6125,
        "meta_arg_of_pericenter": 136.7189,
        "meta_mean_anomaly": 223.524,
        "meta_ephemeris_type": 0,
        "meta_classification_type": "U",
        "meta_norad_cat_id": 35480,
        "meta_element_set_no": 999,
        "meta_rev_at_epoch": 86874,
        "meta_bstar": 0.000651702,
        "meta_mean_motion_dot": 2.53e-05,
        "meta_mean_motion_ddot": 0,
        "tle_line1": "1 35480U 97051QA  25335.89545714  .00002530  00000+0  65170-3 0  9994",
        "tle_line2": "2 35480  86.3575  29.6125 0015549 136.7189 223.5240 14.49686619868745"
      },
      "geometry": {
        "type": "Point",
        "coordinates": [
          85.25869783515307,
          85.68530417040648
        ]
      }
    },
    {
      "type": "Feature",
      "properties": {
        "norad_id": 35484,
        "name": "IRIDIUM 33 DEB",
        "group": "iridium-33-debris",
        "lat": -43.95668022630252,
        "lon": 179.22986256026488,
        "alt_km": 577.0870484134111,
        "timestamp": "2025-12-06T09:34:17.299661+00:00",
        "meta_object_name": "IRIDIUM 33 DEB",
        "meta_object_id": "1997-051QE",
        "meta_epoch": "2025-12-01T19:32:14.692416",
        "meta_mean_motion": 14.97587734,
        "meta_eccentricity": 0.00218288,
        "meta_inclination": 86.3628,
        "meta_ra_of_asc_node": 357.8533,
        "meta_arg_of_pericenter": 162.6444,
        "meta_mean_anomaly": 197.5538,
        "meta_ephemeris_type": 0,
        "meta_classification_type": "U",
        "meta_norad_cat_id": 35484,
        "meta_element_set_no": 999,
        "meta_rev_at_epoch": 61852,
        "meta_bstar": 0.0025030806,
        "meta_mean_motion_dot": 0.00029486,
        "meta_mean_motion_ddot": 0,
        "tle_line1": "1 35484U 97051QE  25335.81405894  .00029486  00000+0  25031-2 0  9994",
        "tle_line2": "2 35484  86.3628 357.8533 0021828 162.6444 197.5538 14.97587734618526"
      },
      "geometry": {
        "type": "Point",
        "coordinates": [
          179.22986256026488,
          -43.95668022630252
        ]
      }
    },
    {
      "type": "Feature",
      "properties": {
        "norad_id": 35488,
        "name": "IRIDIUM 33 DEB",
        "group": "iridium-33-debris",
        "lat": -34.65681347415931,
        "lon": -58.74571871465668,
        "alt_km": 629.3831837490079,
        "timestamp": "2025-12-06T09:34:17.299671+00:00",
        "meta_object_name": "IRIDIUM 33 DEB",
        "meta_object_id": "1997-051QJ",
        "meta_epoch": "2025-12-05T07:48:48.847104",
        "meta_mean_motion": 14.8277176,
        "meta_eccentricity": 0.00306154,
        "meta_inclination": 86.3258,
        "meta_ra_of_asc_node": 304.2947,
        "meta_arg_of_pericenter": 66.2574,
        "meta_mean_anomaly": 294.1855,
        "meta_ephemeris_type": 0,
        "meta_classification_type": "U",
        "meta_norad_cat_id": 35488,
        "meta_element_set_no": 999,
        "meta_rev_at_epoch": 88156,
        "meta_bstar": 0.0027096313,
        "meta_mean_motion_dot": 0.00022144,
        "meta_mean_motion_ddot": 0,
        "tle_line1": "1 35488U 97051QJ  25339.32556536  .00022144  00000+0  27096-2 0  9995",
        "tle_line2": "2 35488  86.3258 304.2947 0030615  66.2574 294.1855 14.82771760881561"
      },
      "geometry": {
        "type": "Point",
        "coordinates": [
          -58.74571871465668,
          -34.65681347415931
        ]
      }
    }
  ]
}